[{"OBJECT_NAME":"STARLINK-3139","OBJECT_ID":"2021-104T","EPOCH":"2026-03-09T16:13:33.858048","MEAN_MOTION":15.088416,"ECCENTRICITY":0.00012104,"INCLINATION":53.2168,"RA_OF_ASC_NODE":229.1943,"ARG_OF_PERICENTER":85.2734,"MEAN_ANOMALY":274.8396,"EPHEMERIS_TYPE":0,"CLASSIFICATION_TYPE":"U","NORAD_CAT_ID":49425,"ELEMENT_SET_NO":999,"REV_AT_EPOCH":23863,"BSTAR":1.1891648e-5,"MEAN_MOTION_DOT":-9.9e-7,"MEAN_MOTION_DDOT":0},{"OBJECT_NAME":"PSLV R\/B","OBJECT_ID":"2010-035F","EPOCH":"2026-03-09T21:32:02.806944","MEAN_MOTION":15.11637156,"ECCENTRICITY":0.00120112,"INCLINATION":97.9796,"RA_OF_ASC_NODE":355.2302,"ARG_OF_PERICENTER":197.9598,"MEAN_ANOMALY":162.1208,"EPHEMERIS_TYPE":0,"CLASSIFICATION_TYPE":"U","NORAD_CAT_ID":36800,"ELEMENT_SET_NO":999,"REV_AT_EPOCH":85407,"BSTAR":0.00037264097,"MEAN_MOTION_DOT":6.275e-5,"MEAN_MOTION_DDOT":0}]
